NORAD_CAT_ID,OBJECT_NAME,OBJECT_TYPE,EPOCH,MEAN_MOTION,ECCENTRICITY,INCLINATION,RA_OF_ASC_NODE,ARG_OF_PERICENTER,MEAN_ANOMALY,BSTAR,MEAN_MOTION_DOT,MEAN_MOTION_DDOT,TLE_LINE0,TLE_LINE1,TLE_LINE2,SEMIMAJOR_AXIS,PERIOD,APOGEE,PERIGEE,DECAYED
54083.0,STARLINK-5178,PAYLOAD,2022-12-19 08:00:01,15.27188899,0.000126,53.2175,215.5298,74.5073,24.6656,-0.046205,-0.01136782,0.0,0 STARLINK-5178,1 54083U 22136AJ  22353.33334491 -.01136782  00000-0 -46205-1 0  9997,2 54083  53.2175 215.5298 0001260  74.5073  24.6656 15.27188899  9862,6862.357,94.291,485.087,483.358,0.0
54083.0,STARLINK-5178,PAYLOAD,2022-12-19 12:00:00,15.26779607,0.0001211,53.2174,214.7597,88.3682,207.5008,-0.046612,-0.01132899,0.0,0 STARLINK-5178,1 54083U 22136AJ  22353.50001157 -.01132899  00000-0 -46612-1 0  9993,2 54083  53.2174 214.7597 0001211  88.3682 207.5008 15.26779607  1305,6863.584,94.316,486.28,484.61800000000005,0.0
54083.0,STARLINK-5178,PAYLOAD,2022-12-19 22:00:00,15.25766213,0.0001267,53.2175,212.8403,72.7367,353.7974,-0.048354,-0.01154195,0.0,0 STARLINK-5178,1 54083U 22136AJ  22353.91667824 -.01154195  00000-0 -48354-1 0  9995,2 54083  53.2175 212.8403 0001267  72.7367 353.7974 15.25766213  1303,6866.623000000001,94.379,489.358,487.61800000000005,0.0
54083.0,STARLINK-5178,PAYLOAD,2022-12-20 14:00:01,15.24142695,0.0001385999999999,53.2168,209.7713,74.5256,53.8969,-0.050991,-0.01158632,0.0,0 STARLINK-5178,1 54083U 22136AJ  22354.58334491 -.01158632  00000-0 -50991-1 0  9990,2 54083  53.2168 209.7713 0001386  74.5256  53.8969 15.24142695  1306,6871.498000000001,94.479,494.315,492.411,0.0
54083.0,STARLINK-5178,PAYLOAD,2022-12-21 08:00:01,15.22299487,0.0001322,53.212,206.3332,91.2528,192.1618,-0.053395,-0.01149073,0.0,0 STARLINK-5178,1 54083U 22136AJ  22355.33334491 -.01149073  00000-0 -53395-1 0  9994,2 54083  53.2120 206.3332 0001322  91.2528 192.1618 15.22299487 10175,6877.044,94.594,499.818,497.999,0.0
54083.0,STARLINK-5178,PAYLOAD,2022-12-21 14:00:01,15.21706972,0.0001424,53.2119,205.1875,95.3524,118.5995,-0.05484,-0.01158834,0.0,0 STARLINK-5178,1 54083U 22136AJ  22355.58334491 -.01158834  00000-0 -54840-1 0  9992,2 54083  53.2119 205.1875 0001424  95.3524 118.5995 15.21706972  1302,6878.829000000002,94.631,501.673,499.714,0.0
54083.0,STARLINK-5178,PAYLOAD,2022-12-22 08:00:01,15.19845652,0.0001159,53.2117,201.7582,89.193,273.1272,-0.056295,-0.0112857,0.0,0 STARLINK-5178,1 54083U 22136AJ  22356.33334491 -.01128570  00000-0 -56295-1 0  9996,2 54083  53.2117 201.7582 0001159  89.1930 273.1272 15.19845652 10328,6884.444,94.746,507.107,505.511,0.0
54083.0,STARLINK-5178,PAYLOAD,2022-12-22 14:00:01,15.19276889,0.0001327,53.2138,200.615,100.7221,189.9308,-0.060148,-0.01181454,0.0,0 STARLINK-5178,1 54083U 22136AJ  22356.58334491 -.01181454  00000-0 -60148-1 0  9995,2 54083  53.2138 200.6150 0001327 100.7221 189.9308 15.19276889  1302,6886.1619999999975,94.782,508.941,507.11300000000006,0.0
54083.0,STARLINK-5178,PAYLOAD,2022-12-22 22:00:00,15.18367105,0.0001330999999999,53.2159,199.0964,91.1071,223.1839,-0.055731,-0.01074361,0.0,0 STARLINK-5178,1 54083U 22136AJ  22356.91667824 -.01074361  00000-0 -55731-1 0  9991,2 54083  53.2159 199.0964 0001331  91.1071 223.1839 15.18367105  1301,6888.9119999999975,94.839,511.694,509.86,0.0
54083.0,STARLINK-5178,PAYLOAD,2022-12-23 08:00:01,15.17457639,0.0001212,53.2167,197.1975,78.8569,353.5034,-0.064342,-0.01197401,0.0,0 STARLINK-5178,1 54083U 22136AJ  22357.33334491 -.01197401  00000-0 -64342-1 0  9998,2 54083  53.2167 197.1975 0001212  78.8569 353.5034 15.17457639 10477,6891.6640000000025,94.896,514.365,512.694,0.0
54083.0,STARLINK-5178,PAYLOAD,2022-12-23 14:00:01,15.16820068,0.0001209,53.2166,196.0604,83.6121,274.9111,-0.063225,-0.01158454,0.0,0 STARLINK-5178,1 54083U 22136AJ  22357.58334491 -.01158454  00000-0 -63225-1 0  9999,2 54083  53.2166 196.0604 0001209  83.6121 274.9111 15.16820068  1300,6893.596,94.935,516.294,514.627,0.0
54083.0,STARLINK-5178,PAYLOAD,2022-12-23 22:00:01,15.16002589,0.0001208,53.217,194.548,94.578,284.6874,-0.064494,-0.01154616,0.0,0 STARLINK-5178,1 54083U 22136AJ  22357.91668981 -.01154616  00000-0 -64494-1 0  9995,2 54083  53.2170 194.5480 0001208  94.5780 284.6874 15.16002589  1305,6896.073,94.987,518.7719999999998,517.105,0.0
54083.0,STARLINK-5178,PAYLOAD,2022-12-24 04:00:00,15.15402792,0.0001245,53.2162,193.4133,87.9727,216.0914,-0.066541,-0.01169725,0.0,0 STARLINK-5178,1 54083U 22136AJ  22358.16667824 -.01169725  00000-0 -66541-1 0  9990,2 54083  53.2162 193.4133 0001245  87.9727 216.0914 15.15402792 10603,6897.893,95.024,520.617,518.899,0.0
54083.0,STARLINK-5178,PAYLOAD,2022-12-24 14:00:01,15.14375402,0.0001268,53.2166,191.5242,80.8152,336.809,-0.067503,-0.01153778,0.0,0 STARLINK-5178,1 54083U 22136AJ  22358.58334491 -.01153778  00000-0 -67503-1 0  9997,2 54083  53.2166 191.5242 0001268  80.8152 336.8090 15.14375402  1305,6901.012,95.089,523.752,522.002,0.0
54083.0,STARLINK-5178,PAYLOAD,2022-12-24 22:00:00,15.13571056,0.0001256,53.2168,190.0177,92.6469,342.7161,-0.069975,-0.01167882,0.0,0 STARLINK-5178,1 54083U 22136AJ  22358.91667824 -.01167882  00000-0 -69975-1 0  9999,2 54083  53.2168 190.0177 0001256  92.6469 342.7161 15.13571056  1304,6903.456999999999,95.139,526.189,524.455,0.0
54083.0,STARLINK-5178,PAYLOAD,2022-12-25 08:00:01,15.1253749,0.0001382,53.2171,188.133,87.6308,98.5461,-0.070452,-0.01144102,0.0,0 STARLINK-5178,1 54083U 22136AJ  22359.33334491 -.01144102  00000-0 -70452-1 0  9999,2 54083  53.2171 188.1330 0001382  87.6308  98.5461 15.12537490 10787,6906.602,95.204,529.4209999999998,527.512,0.0
54083.0,STARLINK-5178,PAYLOAD,2022-12-25 14:00:01,15.11946806,0.000138,53.2165,187.005,78.3437,29.5732,-0.0735059999999999,-0.01171704,0.0,0 STARLINK-5178,1 54083U 22136AJ  22359.58334491 -.01171704  00000-0 -73506-1 0  9997,2 54083  53.2165 187.0050 0001380  78.3437  29.5732 15.11946806  1302,6908.4,95.241,531.219,529.312,0.0
54083.0,STARLINK-5178,PAYLOAD,2022-12-26 00:00:00,15.10908411,0.0001437,53.2171,185.1285,100.2194,116.0667,-0.073522,-0.0114103,0.0,0 STARLINK-5178,1 54083U 22136AJ  22360.00001157 -.01141030  00000-0 -73522-1 0  9993,2 54083  53.2171 185.1285 0001437 100.2194 116.0667 15.10908411  1304,6911.565,95.307,534.423,532.437,0.0
54083.0,STARLINK-5178,PAYLOAD,2022-12-26 06:00:00,15.10318284,0.000145,53.2167,184.0021,85.0922,51.4689,-0.07702,-0.01173093,0.0,0 STARLINK-5178,1 54083U 22136AJ  22360.25001157 -.01173093  00000-0 -77020-1 0  9991,2 54083  53.2167 184.0021 0001450  85.0922  51.4689 15.10318284 10926,6913.366,95.344,536.2330000000002,534.2280000000002,0.0
54083.0,STARLINK-5178,PAYLOAD,2022-12-26 14:00:01,15.09360116,0.0001496999999999,53.2167,182.5029,95.9762,53.4616,-0.040885,-0.0062056,0.0,0 STARLINK-5178,1 54083U 22136AJ  22360.58334491 -.00620560  00000-0 -40885-1 0  9991,2 54083  53.2167 182.5029 0001497  95.9762  53.4616 15.09360116  1303,6916.291,95.405,539.191,537.121,0.0
54083.0,STARLINK-5178,PAYLOAD,2022-12-27 00:00:00,15.0888495,0.0001321,53.2147,180.6344,91.219,163.0149,-0.0012722,-0.00020503,0.0,0 STARLINK-5178,1 54083U 22136AJ  22361.00001157 -.00020503  00000-0 -12722-2 0  9990,2 54083  53.2147 180.6344 0001321  91.2190 163.0149 15.08884950 11036,6917.743,95.435,540.5219999999998,538.694,0.0
54083.0,STARLINK-5178,PAYLOAD,2022-12-27 14:00:01,15.08906964,0.000114,53.2133,178.015,97.5698,87.0081,-0.0076468999999999,-0.00120182,0.0,0 STARLINK-5178,1 54083U 22136AJ  22361.58334491 -.00120182  00000-0 -76469-2 0  9995,2 54083  53.2133 178.0150 0001140  97.5698  87.0081 15.08906964  1307,6917.676,95.433,540.3290000000002,538.752,0.0
54083.0,STARLINK-5178,PAYLOAD,2022-12-27 22:00:00,15.08792384,9.95e-05,53.2133,176.52,82.0216,114.1894,-0.00035461,-5.919e-05,0.0,0 STARLINK-5178,1 54083U 22136AJ  22361.91667824 -.00005919  00000-0 -35461-3 0  9999,2 54083  53.2133 176.5200 0000995  82.0216 114.1894 15.08792384  1301,6918.026,95.441,540.5790000000002,539.203,0.0
54083.0,STARLINK-5178,PAYLOAD,2022-12-28 02:00:01,15.087968099999998,0.0001018,53.2129,175.771,83.3136,298.6659,-0.0017122,-0.00027402,0.0,0 STARLINK-5178,1 54083U 22136AJ  22362.08334491 -.00027402  00000-0 -17122-2 0  9993,2 54083  53.2129 175.7710 0001018  83.3136 298.6659 15.08796810 11198,6918.012,95.44,540.582,539.173,0.0
54083.0,STARLINK-5178,PAYLOAD,2022-12-28 14:00:01,15.0883035,0.0001298,53.2134,173.5259,92.7346,126.5356,0.0010884,0.00017072,0.0,0 STARLINK-5178,1 54083U 22136AJ  22362.58334491  .00017072  00000-0  10884-2 0  9996,2 54083  53.2134 173.5259 0001298  92.7346 126.5356 15.08830350  1308,6917.91,95.438,540.673,538.877,0.0
54083.0,STARLINK-5178,PAYLOAD,2022-12-28 18:00:00,15.08848726,0.0001349,53.2132,172.7786,85.2625,319.7982,-0.0011427999999999,-0.00018434,0.0,0 STARLINK-5178,1 54083U 22136AJ  22362.75001157 -.00018434  00000-0 -11428-2 0  9995,2 54083  53.2132 172.7786 0001349  85.2625 319.7982 15.08848726 11292,6917.854,95.437,540.6519999999998,538.785,0.0
54083.0,STARLINK-5178,PAYLOAD,2022-12-28 22:00:00,15.08823491,0.0001315999999999,53.2134,172.0309,80.9479,149.9224,0.0031703,0.00050506,0.0,0 STARLINK-5178,1 54083U 22136AJ  22362.91667824  .00050506  00000-0  31703-2 0  9994,2 54083  53.2134 172.0309 0001316  80.9479 149.9224 15.08823491  1306,6917.931,95.439,540.706,538.885,0.0
54083.0,STARLINK-5178,PAYLOAD,2022-12-29 08:00:01,15.088286800000002,0.000127,53.2134,170.1582,91.5067,243.8733,0.0031301,0.00049865,0.0,0 STARLINK-5178,1 54083U 22136AJ  22363.33334491  .00049865  00000-0  31301-2 0  9992,2 54083  53.2134 170.1582 0001270  91.5067 243.8733 15.08828680 11381,6917.915,95.438,540.659,538.901,0.0
54083.0,STARLINK-5178,PAYLOAD,2022-12-29 14:00:01,15.08869448,0.0001327,53.2137,169.0366,89.3004,164.77200000000005,-0.0012232999999999,-0.00019719,0.0,0 STARLINK-5178,1 54083U 22136AJ  22363.58334491 -.00019719  00000-0 -12233-2 0  9999,2 54083  53.2137 169.0366 0001327  89.3004 164.7720 15.08869448  1305,6917.79,95.436,540.573,538.737,0.0
